CCSDS_OMM_VERS = 2.0
CREATION_DATE  = 
ORIGINATOR     = 

OBJECT_NAME    = KUIPER-00175
OBJECT_ID      = 2025-301C
CENTER_NAME    = EARTH
REF_FRAME      = TEME
TIME_SYSTEM    = UTC
MEAN_ELEMENT_THEORY = SGP/SGP4

EPOCH          = 2026-01-02T07:47:07.840320
MEAN_MOTION    = 15.36923109
ECCENTRICITY   = .00027064
INCLINATION    = 51.8747
RA_OF_ASC_NODE = 25.7128
ARG_OF_PERICENTER = 72.3697
MEAN_ANOMALY   = 287.7585

EPHEMERIS_TYPE = 0
CLASSIFICATION_TYPE = U
NORAD_CAT_ID   = 67135
ELEMENT_SET_NO = 999
REV_AT_EPOCH   = 360
BSTAR          = .14378331E-2
MEAN_MOTION_DOT = .52705E-3
MEAN_MOTION_DDOT = 0

CCSDS_OMM_VERS = 2.0
CREATION_DATE  = 
ORIGINATOR     = 

OBJECT_NAME    = KUIPER-00179
OBJECT_ID      = 2025-301D
CENTER_NAME    = EARTH
REF_FRAME      = TEME
TIME_SYSTEM    = UTC
MEAN_ELEMENT_THEORY = SGP/SGP4

EPOCH          = 2026-01-02T07:52:27.376032
MEAN_MOTION    = 15.36498039
ECCENTRICITY   = .00032886
INCLINATION    = 51.8743
RA_OF_ASC_NODE = 25.7391
ARG_OF_PERICENTER = 101.5249
MEAN_ANOMALY   = 258.6107

EPHEMERIS_TYPE = 0
CLASSIFICATION_TYPE = U
NORAD_CAT_ID   = 67136
ELEMENT_SET_NO = 999
REV_AT_EPOCH   = 371
BSTAR          = .13818903E-2
MEAN_MOTION_DOT = .4993E-3
MEAN_MOTION_DDOT = 0

CCSDS_OMM_VERS = 2.0
CREATION_DATE  = 
ORIGINATOR     = 

OBJECT_NAME    = KUIPER-00181
OBJECT_ID      = 2025-301E
CENTER_NAME    = EARTH
REF_FRAME      = TEME
TIME_SYSTEM    = UTC
MEAN_ELEMENT_THEORY = SGP/SGP4

EPOCH          = 2026-01-02T06:49:00.153984
MEAN_MOTION    = 15.34694300
ECCENTRICITY   = .00105264
INCLINATION    = 51.8642
RA_OF_ASC_NODE = 26.1866
ARG_OF_PERICENTER = 165.9591
MEAN_ANOMALY   = 194.1689

EPHEMERIS_TYPE = 0
CLASSIFICATION_TYPE = U
NORAD_CAT_ID   = 67137
ELEMENT_SET_NO = 999
REV_AT_EPOCH   = 368
BSTAR          = .12951805E-2
MEAN_MOTION_DOT = .44164E-3
MEAN_MOTION_DDOT = 0

CCSDS_OMM_VERS = 2.0
CREATION_DATE  = 
ORIGINATOR     = 

OBJECT_NAME    = KUIPER-00183
OBJECT_ID      = 2025-301F
CENTER_NAME    = EARTH
REF_FRAME      = TEME
TIME_SYSTEM    = UTC
MEAN_ELEMENT_THEORY = SGP/SGP4

EPOCH          = 2026-01-02T05:20:12.782688
MEAN_MOTION    = 15.34451652
ECCENTRICITY   = .00111883
INCLINATION    = 51.8616
RA_OF_ASC_NODE = 26.5199
ARG_OF_PERICENTER = 168.4121
MEAN_ANOMALY   = 191.7124

EPHEMERIS_TYPE = 0
CLASSIFICATION_TYPE = U
NORAD_CAT_ID   = 67138
ELEMENT_SET_NO = 999
REV_AT_EPOCH   = 368
BSTAR          = .1276534E-2
MEAN_MOTION_DOT = .4319E-3
MEAN_MOTION_DDOT = 0

CCSDS_OMM_VERS = 2.0
CREATION_DATE  = 
ORIGINATOR     = 

OBJECT_NAME    = KUIPER-00184
OBJECT_ID      = 2025-301G
CENTER_NAME    = EARTH
REF_FRAME      = TEME
TIME_SYSTEM    = UTC
MEAN_ELEMENT_THEORY = SGP/SGP4

EPOCH          = 2026-01-02T06:47:47.356800
MEAN_MOTION    = 15.34761160
ECCENTRICITY   = .00092614
INCLINATION    = 51.8630
RA_OF_ASC_NODE = 26.1801
ARG_OF_PERICENTER = 164.2152
MEAN_ANOMALY   = 195.9124

EPHEMERIS_TYPE = 0
CLASSIFICATION_TYPE = U
NORAD_CAT_ID   = 67139
ELEMENT_SET_NO = 999
REV_AT_EPOCH   = 380
BSTAR          = .12394141E-2
MEAN_MOTION_DOT = .4231E-3
MEAN_MOTION_DDOT = 0

CCSDS_OMM_VERS = 2.0
CREATION_DATE  = 
ORIGINATOR     = 

OBJECT_NAME    = KUIPER-00186
OBJECT_ID      = 2025-301H
CENTER_NAME    = EARTH
REF_FRAME      = TEME
TIME_SYSTEM    = UTC
MEAN_ELEMENT_THEORY = SGP/SGP4

EPOCH          = 2026-01-02T06:38:38.283936
MEAN_MOTION    = 15.35410832
ECCENTRICITY   = .00077895
INCLINATION    = 51.8685
RA_OF_ASC_NODE = 26.1438
ARG_OF_PERICENTER = 151.7635
MEAN_ANOMALY   = 208.3774

EPHEMERIS_TYPE = 0
CLASSIFICATION_TYPE = U
NORAD_CAT_ID   = 67140
ELEMENT_SET_NO = 999
REV_AT_EPOCH   = 352
BSTAR          = .74335009E-3
MEAN_MOTION_DOT = .25689E-3
MEAN_MOTION_DDOT = 0

CCSDS_OMM_VERS = 2.0
CREATION_DATE  = 
ORIGINATOR     = 

OBJECT_NAME    = KUIPER-00187
OBJECT_ID      = 2025-301J
CENTER_NAME    = EARTH
REF_FRAME      = TEME
TIME_SYSTEM    = UTC
MEAN_ELEMENT_THEORY = SGP/SGP4

EPOCH          = 2026-01-02T06:26:02.461920
MEAN_MOTION    = 15.36085746
ECCENTRICITY   = .00050057
INCLINATION    = 51.8715
RA_OF_ASC_NODE = 26.0884
ARG_OF_PERICENTER = 138.4240
MEAN_ANOMALY   = 221.7128

EPHEMERIS_TYPE = 0
CLASSIFICATION_TYPE = U
NORAD_CAT_ID   = 67141
ELEMENT_SET_NO = 999
REV_AT_EPOCH   = 352
BSTAR          = .83714698E-3
MEAN_MOTION_DOT = .2962E-3
MEAN_MOTION_DDOT = 0

CCSDS_OMM_VERS = 2.0
CREATION_DATE  = 
ORIGINATOR     = 

OBJECT_NAME    = KUIPER-00188
OBJECT_ID      = 2025-301K
CENTER_NAME    = EARTH
REF_FRAME      = TEME
TIME_SYSTEM    = UTC
MEAN_ELEMENT_THEORY = SGP/SGP4

EPOCH          = 2026-01-02T06:40:07.574016
MEAN_MOTION    = 15.35349951
ECCENTRICITY   = .00075882
INCLINATION    = 51.8696
RA_OF_ASC_NODE = 26.1508
ARG_OF_PERICENTER = 155.6749
MEAN_ANOMALY   = 204.4596

EPHEMERIS_TYPE = 0
CLASSIFICATION_TYPE = U
NORAD_CAT_ID   = 67142
ELEMENT_SET_NO = 999
REV_AT_EPOCH   = 352
BSTAR          = .96706154E-3
MEAN_MOTION_DOT = .33505E-3
MEAN_MOTION_DDOT = 0

CCSDS_OMM_VERS = 2.0
CREATION_DATE  = 
ORIGINATOR     = 

OBJECT_NAME    = KUIPER-00191
OBJECT_ID      = 2025-301L
CENTER_NAME    = EARTH
REF_FRAME      = TEME
TIME_SYSTEM    = UTC
MEAN_ELEMENT_THEORY = SGP/SGP4

EPOCH          = 2026-01-02T06:36:46.246464
MEAN_MOTION    = 15.35469323
ECCENTRICITY   = .00066445
INCLINATION    = 51.8675
RA_OF_ASC_NODE = 26.1349
ARG_OF_PERICENTER = 151.3389
MEAN_ANOMALY   = 208.7964

EPHEMERIS_TYPE = 0
CLASSIFICATION_TYPE = U
NORAD_CAT_ID   = 67143
ELEMENT_SET_NO = 999
REV_AT_EPOCH   = 355
BSTAR          = .74280693E-3
MEAN_MOTION_DOT = .25713E-3
MEAN_MOTION_DDOT = 0

CCSDS_OMM_VERS = 2.0
CREATION_DATE  = 
ORIGINATOR     = 

OBJECT_NAME    = KUIPER-00196
OBJECT_ID      = 2025-301M
CENTER_NAME    = EARTH
REF_FRAME      = TEME
TIME_SYSTEM    = UTC
MEAN_ELEMENT_THEORY = SGP/SGP4

EPOCH          = 2026-01-02T07:56:46.536288
MEAN_MOTION    = 15.36276388
ECCENTRICITY   = .00037706
INCLINATION    = 51.8735
RA_OF_ASC_NODE = 25.7597
ARG_OF_PERICENTER = 115.7434
MEAN_ANOMALY   = 244.3942

EPHEMERIS_TYPE = 0
CLASSIFICATION_TYPE = U
NORAD_CAT_ID   = 67144
ELEMENT_SET_NO = 999
REV_AT_EPOCH   = 353
BSTAR          = .14821309E-2
MEAN_MOTION_DOT = .53223E-3
MEAN_MOTION_DDOT = 0

CCSDS_OMM_VERS = 2.0
CREATION_DATE  = 
ORIGINATOR     = 

OBJECT_NAME    = KUIPER-00204
OBJECT_ID      = 2025-301N
CENTER_NAME    = EARTH
REF_FRAME      = TEME
TIME_SYSTEM    = UTC
MEAN_ELEMENT_THEORY = SGP/SGP4

EPOCH          = 2026-01-02T07:48:14.915232
MEAN_MOTION    = 15.36732477
ECCENTRICITY   = .00023667
INCLINATION    = 51.8748
RA_OF_ASC_NODE = 25.7151
ARG_OF_PERICENTER = 87.1420
MEAN_ANOMALY   = 272.9837

EPHEMERIS_TYPE = 0
CLASSIFICATION_TYPE = U
NORAD_CAT_ID   = 67145
ELEMENT_SET_NO = 999
REV_AT_EPOCH   = 364
BSTAR          = .36726489E-3
MEAN_MOTION_DOT = .13019E-3
MEAN_MOTION_DDOT = 0

CCSDS_OMM_VERS = 2.0
CREATION_DATE  = 
ORIGINATOR     = 

OBJECT_NAME    = KUIPER-00210
OBJECT_ID      = 2025-301P
CENTER_NAME    = EARTH
REF_FRAME      = TEME
TIME_SYSTEM    = UTC
MEAN_ELEMENT_THEORY = SGP/SGP4

EPOCH          = 2026-01-02T06:52:28.296768
MEAN_MOTION    = 15.34550296
ECCENTRICITY   = .0010473
INCLINATION    = 51.8605
RA_OF_ASC_NODE = 26.1988
ARG_OF_PERICENTER = 171.0688
MEAN_ANOMALY   = 189.0486

EPHEMERIS_TYPE = 0
CLASSIFICATION_TYPE = U
NORAD_CAT_ID   = 67146
ELEMENT_SET_NO = 999
REV_AT_EPOCH   = 369
BSTAR          = .12413476E-2
MEAN_MOTION_DOT = .42106E-3
MEAN_MOTION_DDOT = 0

CCSDS_OMM_VERS = 2.0
CREATION_DATE  = 
ORIGINATOR     = 

OBJECT_NAME    = KUIPER-00221
OBJECT_ID      = 2025-301Q
CENTER_NAME    = EARTH
REF_FRAME      = TEME
TIME_SYSTEM    = UTC
MEAN_ELEMENT_THEORY = SGP/SGP4

EPOCH          = 2026-01-02T06:27:50.376384
MEAN_MOTION    = 15.36023991
ECCENTRICITY   = .00051067
INCLINATION    = 51.8722
RA_OF_ASC_NODE = 26.0956
ARG_OF_PERICENTER = 134.7141
MEAN_ANOMALY   = 225.4262

EPHEMERIS_TYPE = 0
CLASSIFICATION_TYPE = U
NORAD_CAT_ID   = 67147
ELEMENT_SET_NO = 999
REV_AT_EPOCH   = 352
BSTAR          = .10194475E-2
MEAN_MOTION_DOT = .36114E-3
MEAN_MOTION_DDOT = 0

CCSDS_OMM_VERS = 2.0
CREATION_DATE  = 
ORIGINATOR     = 

OBJECT_NAME    = KUIPER-00232
OBJECT_ID      = 2025-301R
CENTER_NAME    = EARTH
REF_FRAME      = TEME
TIME_SYSTEM    = UTC
MEAN_ELEMENT_THEORY = SGP/SGP4

EPOCH          = 2026-01-02T07:45:43.691040
MEAN_MOTION    = 15.36966841
ECCENTRICITY   = .00023417
INCLINATION    = 51.8747
RA_OF_ASC_NODE = 25.7086
ARG_OF_PERICENTER = 66.5017
MEAN_ANOMALY   = 293.6215

EPHEMERIS_TYPE = 0
CLASSIFICATION_TYPE = U
NORAD_CAT_ID   = 67148
ELEMENT_SET_NO = 999
REV_AT_EPOCH   = 353
BSTAR          = .14526402E-2
MEAN_MOTION_DOT = .5333E-3
MEAN_MOTION_DDOT = 0

CCSDS_OMM_VERS = 2.0
CREATION_DATE  = 
ORIGINATOR     = 

OBJECT_NAME    = KUIPER-00241
OBJECT_ID      = 2025-301S
CENTER_NAME    = EARTH
REF_FRAME      = TEME
TIME_SYSTEM    = UTC
MEAN_ELEMENT_THEORY = SGP/SGP4

EPOCH          = 2026-01-02T07:53:07.210752
MEAN_MOTION    = 15.36509644
ECCENTRICITY   = .00027573
INCLINATION    = 51.8747
RA_OF_ASC_NODE = 25.7404
ARG_OF_PERICENTER = 109.0727
MEAN_ANOMALY   = 251.0558

EPHEMERIS_TYPE = 0
CLASSIFICATION_TYPE = U
NORAD_CAT_ID   = 67149
ELEMENT_SET_NO = 999
REV_AT_EPOCH   = 386
BSTAR          = .13449028E-2
MEAN_MOTION_DOT = .4859E-3
MEAN_MOTION_DDOT = 0

